[{"OBJECT_NAME":"ONEWEB-0113","OBJECT_ID":"2021-025J","EPOCH":"2026-03-09T17:08:47.217696","MEAN_MOTION":13.13950469,"ECCENTRICITY":0.00013725,"INCLINATION":87.9041,"RA_OF_ASC_NODE":339.9364,"ARG_OF_PERICENTER":82.7439,"MEAN_ANOMALY":277.3847,"EPHEMERIS_TYPE":0,"CLASSIFICATION_TYPE":"U","NORAD_CAT_ID":48050,"ELEMENT_SET_NO":999,"REV_AT_EPOCH":24054,"BSTAR":-0.00028189951,"MEAN_MOTION_DOT":-9.1e-7,"MEAN_MOTION_DDOT":0},{"OBJECT_NAME":"SL-14 DEB","OBJECT_ID":"1991-056E","EPOCH":"2026-03-09T20:54:45.656064","MEAN_MOTION":13.15668367,"ECCENTRICITY":0.00108749,"INCLINATION":82.5565,"RA_OF_ASC_NODE":213.308,"ARG_OF_PERICENTER":91.0131,"MEAN_ANOMALY":269.2237,"EPHEMERIS_TYPE":0,"CLASSIFICATION_TYPE":"U","NORAD_CAT_ID":45268,"ELEMENT_SET_NO":999,"REV_AT_EPOCH":29150,"BSTAR":-0.00014585934,"MEAN_MOTION_DOT":-4.3e-7,"MEAN_MOTION_DDOT":0}]
